FENGYUN 1C DEB          
1 38122U 99025EPT 17346.30441137  .00000182  00000-0  60997-4 0  9991
2 38122  98.5454  23.1928 0255936 234.4806 123.2266 14.32619634379049
